IRIDIUM 119             
1 42959U 17061E   24196.41817697  .00000584  00000+0  20141-3 0  9996
2 42959  86.3989 318.9327 0002294 100.7863 259.3591 14.34217974354085
IRIDIUM 107             
1 42960U 17061F   24196.57674468  .00000128  00000+0  38784-4 0  9999
2 42960  86.3988 318.8834 0002443  95.7631 264.3843 14.34218224354119
IRIDIUM 132             
1 42961U 17061G   24196.58308781  .00000051  00000+0  11053-4 0  9998
2 42961  86.3988 318.8653 0002505  92.6339 267.5143 14.34217718354114
IRIDIUM 136             
1 42962U 17061H   24196.61479633  .00000036  00000+0  56811-5 0  9993
2 42962  86.3990 318.8554 0002240 102.7906 257.3541 14.34215710354138
IRIDIUM 139             
1 42963U 17061J   24196.62114051  .00000032  00000+0  43210-5 0  9990
2 42963  86.3990 318.9032 0002565  95.2733 264.8756 14.34215827354146
IRIDIUM 125             
1 42964U 17061K   24196.60845774  .00000044  00000+0  86919-5 0  9998
2 42964  86.3992 318.9567 0002481 104.2980 255.8491 14.34217781354152
IRIDIUM 135             
1 43070U 17083A   24196.58258283  .00000226  00000+0  73626-4 0  9993
2 43070  86.3949 255.6159 0002086  86.7033 273.4401 14.34218071343441
IRIDIUM 138             
1 43071U 17083B   24196.60794927  .00000329  00000+0  11047-3 0  9999
2 43071  86.3938 255.3191 0002327 102.4800 257.6657 14.34220293343434
